TDRS 3                  
1 19548U 88091B   18310.47703012 -.00000313  00000-0  00000+0 0  9997
2 19548  14.4032   2.8955 0036126 310.7221 201.5328  1.00273361 97499
SKYNET 4C               
1 20776U 90079A   18309.81297234  .00000114  00000-0  00000+0 0  9999
2 20776  13.9676  11.1833 0002823 213.7897 146.1640  1.00271342103067
TDRS 5                  
1 21639U 91054B   18309.74107380  .00000073  00000-0  00000-0 0  9991
2 21639  14.6188  16.2102 0020575 341.9295 145.8355  1.00272993 99838
TDRS 6                  
1 22314U 93003B   18309.83758955 -.00000305  00000-0  00000+0 0  9996
2 22314  14.1970  19.2383 0004449 292.1285 349.3054  1.00274808 94496
ASTRA 1D                
1 23331U 94070A   18310.34864578 -.00000277  00000-0  00000+0 0  9996
2 23331   8.2965  45.8097 0003364 183.8481 228.3898  1.00273521 88294
AMSC 1                  
1 23553U 95019A   18309.27120752 -.00000107  00000-0  00000+0 0  9997
2 23553  10.6674  35.6252 0002189 185.9953 173.9392  1.00272548 86284
TDRS 7                  
1 23613U 95035B   18310.13416580 -.00000214  00000-0  00000+0 0  9995
2 23613  14.6320   9.9210 0025645 352.9674 175.6485  1.00272416 85273
INMARSAT 3-F1           
1 23839U 96020A   18310.37688175 -.00000003  00000-0  00000+0 0  9993
2 23839   4.9403  65.1457 0005750 160.9568  19.6322  1.00270889 82746
ASTRA 1F                
1 23842U 96021A   18310.13079751  .00000127  00000-0  00000+0 0  9992
2 23842   0.0583 309.1426 0004288 271.3416 276.2033  1.00271724 82454
MSAT M1                 
1 23846U 96022A   18310.29756108 -.00000096  00000-0  00000+0 0  9998
2 23846   8.4810  45.2396 0004735 186.1844 173.7185  1.00271672 82565
INMARSAT 3-F2           
1 24307U 96053A   18310.25760469 -.00000135  00000-0  00000+0 0  9990
2 24307   3.6606  75.1291 0005145 165.0720 242.4822  1.00271451 81150
AMC-1 (GE-1)            
1 24315U 96054A   18309.46855664  .00000056  00000-0  00000-0 0  9995
2 24315   2.6354  82.3992 0002631 150.0230 210.0159  1.00271073 18449
INMARSAT 3-F3           
1 24674U 96070A   18310.43984062  .00000026  00000-0  00000+0 0  9991
2 24674   4.4241  69.2856 0005603 157.2989 155.4764  1.00272628 80098
AMC-2 (GE-2)            
1 24713U 97002A   18309.88486027 -.00000222  00000-0  00000-0 0  9996
2 24713   5.2684  63.3591 0004833 164.4721  50.9507  1.00271770 79708
INTELSAT 26 (IS-26)     
1 24732U 97007A   18309.88671417  .00000008  00000-0  00000-0 0  9992
2 24732   8.2087  46.5759 0005431 202.7149 177.1797  1.00271717 44866
GALAXY 25 (G-25)        
1 24812U 97026A   18309.13541001 -.00000176  00000-0  00000+0 0  9991
2 24812   0.5692  94.5545 0003368 127.6129 137.8313  1.00272606 78477
INTELSAT 5 (IS-5)       
1 24916U 97046A   18309.44686052  .00000081  00000-0  00000-0 0  9993
2 24916   4.5316  68.5923 0003416 169.7853 190.1501  1.00273260 77742
AMC-3 (GE-3)            
1 24936U 97050A   18310.46173687 -.00000270  00000-0  00000+0 0  9999
2 24936   1.4675  89.7478 0002418 129.2887 280.8351  1.00271355 77571
NSS-5                   
1 24957U 97053A   18310.14602845  .00000097  00000-0  00000+0 0  9999
2 24957   4.8122  66.7871 0002669 157.1449 284.4638  1.00270400 77367
ASTRA 1G                
1 25071U 97076A   18309.55423596  .00000056  00000-0  00000+0 0  9994
2 25071   3.3608  76.2710 0003640 147.1913  78.0263  1.00273597 76653
INMARSAT 3-F5           
1 25153U 98006B   18310.37503696 -.00000298  00000-0  00000+0 0  9990
2 25153   3.5906  72.7565 0004773 152.9777 260.8550  1.00270999 76019
THOR III                
1 25358U 98035A   18310.04243629 -.00000054  00000-0  00000+0 0  9990
2 25358   6.2750  56.3338 0002075 170.5858 189.3158  1.00273309 74833
INTELSAT 805 (IS-805)   
1 25371U 98037A   18310.22222211 -.00000041  00000-0  00000+0 0  9997
2 25371   1.1072  92.0431 0003055 136.4904  65.9782  1.00271036 74682
ASTRA 2A                
1 25462U 98050A   18309.86975368 -.00000317  00000-0  00000+0 0  9995
2 25462   0.2676 103.0451 0002662 121.4078 233.7526  1.00271242 73866
JCSAT-4A                
1 25630U 99006A   18310.54979983 -.00000211  00000-0  00000+0 0  9991
2 25630   3.3424  77.4041 0001708 123.5056 192.8076  1.00272648 72120
SKYNET 4E               
1 25639U 99009B   18309.97331753 -.00000043  00000-0  00000+0 0  9998
2 25639  10.5225  24.8684 0003424 193.2111 176.3075  1.00270537 72143
ASIASAT 3S              
1 25657U 99013A   18310.36167719 -.00000246  00000-0  00000+0 0  9992
2 25657   3.5457  75.7483 0002762 172.6583  73.3956  1.00271671 71943
NIMIQ 1                 
1 25740U 99027A   18310.23395597 -.00000210  00000-0  00000+0 0  9994
2 25740   0.0208  93.4762 0005247 154.7666 154.8595  1.00268939 71333
ASTRA 1H                
1 25785U 99033A   18309.88564539 -.00000240  00000-0  00000+0 0  9996
2 25785   4.7953  66.9288 0002987 158.2350  57.9440  1.00272000 70903
ABS-7                   
1 25894U 99046A   18310.10882743 -.00000374  00000-0  00000+0 0  9996
2 25894   0.0450  94.1500 0002195 169.1791 297.2929  1.00268674 69266
ABS-6                   
1 25924U 99053A   18310.07966186 -.00000132  00000-0  00000+0 0  9990
2 25924   0.0490  73.9040 0002580 158.2508   0.8223  1.00271005 69998
TELSTAR 12 (ORION 2)    
1 25949U 99059A   18310.53597497 -.00000073  00000-0  00000+0 0  9993
2 25949   1.9843  88.4577 0002777 136.5224 264.5001  1.00271607 69659
AMC-4 (GE-4)            
1 25954U 99060A   18310.24852220  .00000076  00000-0  00000+0 0  9999
2 25954   0.0168 289.2614 0002712 306.4135 124.3247  1.00269116 69619
GALAXY 11 (G-11)        
1 26038U 99071A   18310.13079751  .00000125  00000-0  00000+0 0  9998
2 26038   0.0610 101.4722 0000264 214.2677 181.6000  1.00271883 69209
ASIASTAR                
1 26107U 00016A   18309.87546690 -.00000344  00000-0  00000+0 0  9990
2 26107   2.7317  80.2120 0004309 149.3936 235.6224  1.00268597 68277
EUTELSAT 80A            
1 26369U 00028A   18310.13119978 -.00000054  00000-0  00000+0 0  9997
2 26369   2.0856  84.2504 0003693 161.8214 276.7926  1.00271607 67608
TDRS 8                  
1 26388U 00034A   18309.77099250 -.00000238  00000-0  00000-0 0  9998
2 26388   8.3119  51.7653 0010534 256.0908 103.7085  1.00266205 67303
INTELSAT 9 (IS-9)       
1 26451U 00043A   18310.12282512  .00000140  00000-0  00000+0 0  9995
2 26451   4.5206  68.8005 0004223 157.1076 252.1667  1.00385766 66975
BRASILSAT B4            
1 26469U 00046A   18309.35991446 -.00000182  00000-0  00000-0 0  9991
2 26469   2.7067  82.1095 0002343 161.3737 198.6582  1.00270770 67080
ASTRA 2B                
1 26494U 00054A   18310.26458358  .00000108  00000-0  00000+0 0  9996
2 26494   3.2568  76.9274 0005085 155.3776 287.7829  1.00273968 66368
AMC-7 (GE-7)            
1 26495U 00054B   18309.25149471  .00000074  00000-0  00000+0 0  9999
2 26495   0.0705  85.6141 0002424 157.7691 116.6167  1.00273119 66377
NSS-11 (AAP-1)          
1 26554U 00059A   18309.38728856  .00000011  00000-0  00000+0 0  9995
2 26554   0.0038  64.4100 0001605 173.1707 122.4287  1.00271771 66293
N-SAT-110 (JCSAT-110)   
1 26559U 00060A   18309.86378332 -.00000364  00000-0  00000+0 0  9997
2 26559   0.0712  94.8163 0001543 349.4210  21.8575  1.00271947 66232
AMC-6 (GE-6)            
1 26580U 00067A   18310.10057994 -.00000228  00000-0  00000+0 0  9994
2 26580   0.0033  36.7913 0002817 215.3574 106.3603  1.00272970 66114
INTELSAT 12 (IS-12)     
1 26590U 00068A   18309.91076934  .00000125  00000-0  00000-0 0  9994
2 26590   1.5774  89.6030 0003969 146.4067 181.9655  1.00270617 23834
INTELSAT 1R (IS-1R)     
1 26608U 00072A   18310.14847250 -.00000148  00000-0  00000+0 0  9998
2 26608   1.3718  91.1022 0000714 109.0010  55.8102  1.00271684 65777
ANIK F1                 
1 26624U 00076A   18309.17487177 -.00000088  00000-0  00000-0 0  9993
2 26624   0.0308 135.1547 0002258  58.1253 166.7388  1.00271749 15264
ASTRA 2D                
1 26638U 00081A   18309.05029439  .00000020  00000-0  00000+0 0  9998
2 26638   4.6262  67.6692 0001956 163.4870 196.4537  1.00275464 65503
AMC-8 (GE-8)            
1 26639U 00081B   18309.65022084  .00000091  00000-0  00000+0 0  9992
2 26639   0.0160  68.9827 0002721 181.4786 249.4831  1.00270871 65392
SKYNET 4F               
1 26695U 01005B   18310.16344403 -.00000260  00000-0  00000+0 0  9990
2 26695   9.4328  33.2232 0002228 192.9808 203.9982  1.00272425 65009
EUTELSAT 33C            
1 26719U 01011A   18310.57894271  .00000067  00000-0  00000+0 0  9996
2 26719   0.6295  90.0564 0004781 136.1665 255.0965  1.00271887 64704
INTELSAT 10 (IS-10)     
1 26766U 01019A   18310.12657626  .00000114  00000-0  00000+0 0  9991
2 26766   2.5894  82.5739 0002027 158.2423 257.5743  1.00274472 64052
INTELSAT 901 (IS-901)   
1 26824U 01024A   18309.89585200 -.00000225  00000-0  00000-0 0  9997
2 26824   0.5520  94.1851 0002866 143.6338 100.2753  1.00272263 63802
ASTRA 2C                
1 26853U 01025A   18310.51646693  .00000127  00000-0  00000+0 0  9994
2 26853   1.4918  89.4580 0002667 136.2233  29.6270  1.00273342 63708
INTELSAT 902 (IS-902)   
1 26900U 01039A   18309.91417156  .00000020  00000-0  00000-0 0  9997
2 26900   0.0146 280.4287 0002897 304.9265 210.8576  1.00272297 62834
EUTELSAT 12 WEST B      
1 26927U 01042A   18309.82745900 -.00000113  00000-0  00000+0 0  9994
2 26927   0.0548 335.5384 0005005 255.2438  99.6045  1.00271312 62643
DIRECTV 4S              
1 26985U 01052A   18309.88154530 -.00000125  00000-0  00000-0 0  9992
2 26985   0.0203 272.4849 0002322 310.0427  38.6816  1.00269994 23433
ECHOSTAR 7              
1 27378U 02006A   18310.09342660 -.00000013  00000-0  00000+0 0  9992
2 27378   0.0164  22.1850 0001160 193.1777 104.7539  1.00270051 61182
INTELSAT 904 (IS-904)   
1 27380U 02007A   18309.74993670  .00000123  00000-0  00000-0 0  9991
2 27380   0.1000 102.7016 0002173 109.1585 148.1517  1.00272306 23881
